{"type": "FeatureCollection", "features": [ {"type": "Feature", "properties": {"norad_id": 39620, "name": "COSMOS 2492 (754)", "group": "gnss", "lat": 57.13193736240646, "lon": 95.40207665991042, "alt_km": 19157.789950230144, "timestamp": "2025-12-04T17:48:40.408884+00:00", "meta": {"OBJECT_NAME": "COSMOS 2492 (754)", "OBJECT_ID": "2014-012A", "EPOCH": "2025-12-02T17:14:30.403680", "MEAN_MOTION": 2.13103072, "ECCENTRICITY": 0.00141646, "INCLINATION": 65.4134, "RA_OF_ASC_NODE": 320.6107, "ARG_OF_PERICENTER": 311.0276, "MEAN_ANOMALY": 48.8557, "EPHEMERIS_TYPE": 0, "CLASSIFICATION_TYPE": "U", "NORAD_CAT_ID": 39620, "ELEMENT_SET_NO": 999, "REV_AT_EPOCH": 9105, "BSTAR": 0, "MEAN_MOTION_DOT": -3.6e-07, "MEAN_MOTION_DDOT": 0}, "tle": {"line1": "1 39620U 14012A   25336.71840745 -.00000036  00000+0  00000+0 0  9991", "line2": "2 39620  65.4134 320.6107 0014164 311.0276  48.8557  2.13103072 91051"}}, "geometry": {"type": "Point", "coordinates": [95.40207665991042, 57.13193736240646]}}, {"type": "Feature", "properties": {"norad_id": 39635, "name": "IRNSS-1B", "group": "gnss", "lat": 13.054343332621377, "lon": 38.89358510120286, "alt_km": 35719.82084031028, "timestamp": "2025-12-04T17:48:40.408895+00:00", "meta": {"OBJECT_NAME": "IRNSS-1B", "OBJECT_ID": "2014-017A", "EPOCH": "2025-12-03T19:41:17.178144", "MEAN_MOTION": 1.0027569, "ECCENTRICITY": 0.00176274, "INCLINATION": 28.8399, "RA_OF_ASC_NODE": 243.7446, "ARG_OF_PERICENTER": 183.6842, "MEAN_ANOMALY": 355.8349, "EPHEMERIS_TYPE": 0, "CLASSIFICATION_TYPE": "U", "NORAD_CAT_ID": 39635, "ELEMENT_SET_NO": 999, "REV_AT_EPOCH": 4283, "BSTAR": 0, "MEAN_MOTION_DOT": 1.25e-06, "MEAN_MOTION_DDOT": 0}, "tle": {"line1": "1 39635U 14017A   25337.82033771  .00000125  00000+0  00000+0 0  9996", "line2": "2 39635  28.8399 243.7446 0017627 183.6842 355.8349  1.00275690 42836"}}, "geometry": {"type": "Point", "coordinates": [38.89358510120286, 13.054343332621377]}}, {"type": "Feature", "properties": {"norad_id": 39727, "name": "LUCH 5V (SDCM/PRN 141)", "group": "gnss", "lat": 0.3620954559589251, "lon": 75.74131841226503, "alt_km": 35804.709325109594, "timestamp": "2025-12-04T17:48:40.408907+00:00", "meta": {"OBJECT_NAME": "LUCH 5V (SDCM/PRN 141)", "OBJECT_ID": "2014-023A", "EPOCH": "2025-12-03T19:58:11.808768", "MEAN_MOTION": 1.00271692, "ECCENTRICITY": 0.00045321, "INCLINATION": 4.6454, "RA_OF_ASC_NODE": 71.6144, "ARG_OF_PERICENTER": 199.1759, "MEAN_ANOMALY": 196.4512, "EPHEMERIS_TYPE": 0, "CLASSIFICATION_TYPE": "U", "NORAD_CAT_ID": 39727, "ELEMENT_SET_NO": 999, "REV_AT_EPOCH": 4240, "BSTAR": 0, "MEAN_MOTION_DOT": -2.55e-06, "MEAN_MOTION_DDOT": 0}, "tle": {"line1": "1 39727U 14023A   25337.83208112 -.00000255  00000+0  00000+0 0  9994", "line2": "2 39727   4.6454  71.6144 0004532 199.1759 196.4512  1.00271692 42407"}}, "geometry": {"type": "Point", "coordinates": [75.74131841226503, 0.3620954559589251]}}, {"type": "Feature", "properties": {"norad_id": 39741, "name": "GPS BIIF-6  (PRN 06)", "group": "gnss", "lat": 14.514847722311083, "lon": 149.2440254861661, "alt_km": 20274.7690592198, "timestamp": "2025-12-04T17:48:40.408918+00:00", "meta": {"OBJECT_NAME": "GPS BIIF-6  (PRN 06)", "OBJECT_ID": "2014-026A", "EPOCH": "2025-12-03T00:29:48.019488", "MEAN_MOTION": 2.00561842, "ECCENTRICITY": 0.00389204, "INCLINATION": 56.5873, "RA_OF_ASC_NODE": 339.1546, "ARG_OF_PERICENTER": 318.1696, "MEAN_ANOMALY": 41.56, "EPHEMERIS_TYPE": 0, "CLASSIFICATION_TYPE": "U", "NORAD_CAT_ID": 39741, "ELEMENT_SET_NO": 999, "REV_AT_EPOCH": 8460, "BSTAR": 0, "MEAN_MOTION_DOT": -6.2e-07, "MEAN_MOTION_DDOT": 0}, "tle": {"line1": "1 39741U 14026A   25337.02069467 -.00000062  00000+0  00000+0 0  9998", "line2": "2 39741  56.5873 339.1546 0038920 318.1696  41.5600  2.00561842 84609"}}, "geometry": {"type": "Point", "coordinates": [149.2440254861661, 14.514847722311083]}}, {"type": "Feature", "properties": {"norad_id": 40001, "name": "COSMOS 2500 (755)", "group": "gnss", "lat": -17.773043381483543, "lon": -48.17136829238532, "alt_km": 19143.30943973508, "timestamp": "2025-12-04T17:48:40.408932+00:00", "meta": {"OBJECT_NAME": "COSMOS 2500 (755)", "OBJECT_ID": "2014-032A", "EPOCH": "2025-12-01T22:51:13.641408", "MEAN_MOTION": 2.13105853, "ECCENTRICITY": 0.00082978, "INCLINATION": 65.3495, "RA_OF_ASC_NODE": 320.3998, "ARG_OF_PERICENTER": 219.081, "MEAN_ANOMALY": 140.8682, "EPHEMERIS_TYPE": 0, "CLASSIFICATION_TYPE": "U", "NORAD_CAT_ID": 40001, "ELEMENT_SET_NO": 999, "REV_AT_EPOCH": 8925, "BSTAR": 0, "MEAN_MOTION_DOT": -3.1e-07, "MEAN_MOTION_DDOT": 0}, "tle": {"line1": "1 40001U 14032A   25335.95224122 -.00000031  00000+0  00000+0 0  9993", "line2": "2 40001  65.3495 320.3998 0008297 219.0810 140.8682  2.13105853 89251"}}, "geometry": {"type": "Point", "coordinates": [-48.17136829238532, -17.773043381483543]}}, {"type": "Feature", "properties": {"norad_id": 40105, "name": "GPS BIIF-7  (PRN 09)", "group": "gnss", "lat": 54.08538665232127, "lon": -157.21468630296076, "alt_km": 20093.00400834213, "timestamp": "2025-12-04T17:48:40.408943+00:00", "meta": {"OBJECT_NAME": "GPS BIIF-7  (PRN 09)", "OBJECT_ID": "2014-045A", "EPOCH": "2025-12-02T02:40:49.418112", "MEAN_MOTION": 2.00571797, "ECCENTRICITY": 0.00329353, "INCLINATION": 55.2223, "RA_OF_ASC_NODE": 96.323, "ARG_OF_PERICENTER": 119.6015, "MEAN_ANOMALY": 240.7039, "EPHEMERIS_TYPE": 0, "CLASSIFICATION_TYPE": "U", "NORAD_CAT_ID": 40105, "ELEMENT_SET_NO": 999, "REV_AT_EPOCH": 8212, "BSTAR": 0, "MEAN_MOTION_DOT": 7e-08, "MEAN_MOTION_DDOT": 0}, "tle": {"line1": "1 40105U 14045A   25336.11168308  .00000007  00000+0  00000+0 0  9996", "line2": "2 40105  55.2223  96.3230 0032935 119.6015 240.7039  2.00571797 82125"}}, "geometry": {"type": "Point", "coordinates": [-157.21468630296076, 54.08538665232127]}}, {"type": "Feature", "properties": {"norad_id": 40128, "name": "GSAT0201 (GALILEO 5)", "group": "gnss", "lat": -35.59206213790894, "lon": -116.93881711326944, "alt_km": 24628.733151589237, "timestamp": "2025-12-04T17:48:40.408954+00:00", "meta": {"OBJECT_NAME": "GSAT0201 (GALILEO 5)", "OBJECT_ID": "2014-050A", "EPOCH": "2025-11-28T09:00:06.762528", "MEAN_MOTION": 1.85519533, "ECCENTRICITY": 0.16464881, "INCLINATION": 49.0938, "RA_OF_ASC_NODE": 281.6492, "ARG_OF_PERICENTER": 171.7362, "MEAN_ANOMALY": 191.3851, "EPHEMERIS_TYPE": 0, "CLASSIFICATION_TYPE": "U", "NORAD_CAT_ID": 40128, "ELEMENT_SET_NO": 999, "REV_AT_EPOCH": 7459, "BSTAR": 0, "MEAN_MOTION_DOT": -4.8e-07, "MEAN_MOTION_DDOT": 0}, "tle": {"line1": "1 40128U 14050A   25332.37507827 -.00000048  00000+0  00000+0 0  9990", "line2": "2 40128  49.0938 281.6492 1646488 171.7362 191.3851  1.85519533 74599"}}, "geometry": {"type": "Point", "coordinates": [-116.93881711326944, -35.59206213790894]}}, {"type": "Feature", "properties": {"norad_id": 40129, "name": "GSAT0202 (GALILEO 6)", "group": "gnss", "lat": 45.92145853039936, "lon": 37.09183451919501, "alt_km": 19026.1517954727, "timestamp": "2025-12-04T17:48:40.408966+00:00", "meta": {"OBJECT_NAME": "GSAT0202 (GALILEO 6)", "OBJECT_ID": "2014-050B", "EPOCH": "2025-12-02T22:38:17.581056", "MEAN_MOTION": 1.8552031, "ECCENTRICITY": 0.1647571, "INCLINATION": 49.1042, "RA_OF_ASC_NODE": 280.5465, "ARG_OF_PERICENTER": 172.6616, "MEAN_ANOMALY": 190.1192, "EPHEMERIS_TYPE": 0, "CLASSIFICATION_TYPE": "U", "NORAD_CAT_ID": 40129, "ELEMENT_SET_NO": 999, "REV_AT_EPOCH": 7684, "BSTAR": 0, "MEAN_MOTION_DOT": -5.9e-07, "MEAN_MOTION_DDOT": 0}, "tle": {"line1": "1 40129U 14050B   25336.94325904 -.00000059  00000+0  00000+0 0  9994", "line2": "2 40129  49.1042 280.5465 1647571 172.6616 190.1192  1.85520310 76841"}}, "geometry": {"type": "Point", "coordinates": [37.09183451919501, 45.92145853039936]}}, {"type": "Feature", "properties": {"norad_id": 40269, "name": "IRNSS-1C", "group": "gnss", "lat": -2.8827662579885005, "lon": 63.947029859916974, "alt_km": 35722.8041695786, "timestamp": "2025-12-04T17:48:40.408979+00:00", "meta": {"OBJECT_NAME": "IRNSS-1C", "OBJECT_ID": "2014-061A", "EPOCH": "2025-12-03T18:58:13.488096", "MEAN_MOTION": 1.0026916, "ECCENTRICITY": 0.00178578, "INCLINATION": 6.0182, "RA_OF_ASC_NODE": 92.8005, "ARG_OF_PERICENTER": 2.7549, "MEAN_ANOMALY": 344.8365, "EPHEMERIS_TYPE": 0, "CLASSIFICATION_TYPE": "U", "NORAD_CAT_ID": 40269, "ELEMENT_SET_NO": 999, "REV_AT_EPOCH": 4072, "BSTAR": 0, "MEAN_MOTION_DOT": -1.46e-06, "MEAN_MOTION_DDOT": 0}, "tle": {"line1": "1 40269U 14061A   25337.79043389 -.00000146  00000+0  00000+0 0  9996", "line2": "2 40269   6.0182  92.8005 0017857   2.7549 344.8365  1.00269160 40720"}}, "geometry": {"type": "Point", "coordinates": [63.947029859916974, -2.8827662579885005]}}, {"type": "Feature", "properties": {"norad_id": 40294, "name": "GPS BIIF-8  (PRN 03)", "group": "gnss", "lat": -7.6705532668924405, "lon": -136.48184429336808, "alt_km": 20263.25515835823, "timestamp": "2025-12-04T17:48:40.408990+00:00", "meta": {"OBJECT_NAME": "GPS BIIF-8  (PRN 03)", "OBJECT_ID": "2014-068A", "EPOCH": "2025-12-03T11:38:05.638272", "MEAN_MOTION": 2.00564094, "ECCENTRICITY": 0.00608191, "INCLINATION": 56.851, "RA_OF_ASC_NODE": 38.5042, "ARG_OF_PERICENTER": 69.3788, "MEAN_ANOMALY": 291.3251, "EPHEMERIS_TYPE": 0, "CLASSIFICATION_TYPE": "U", "NORAD_CAT_ID": 40294, "ELEMENT_SET_NO": 999, "REV_AT_EPOCH": 8128, "BSTAR": 0, "MEAN_MOTION_DOT": -6.5e-07, "MEAN_MOTION_DDOT": 0}, "tle": {"line1": "1 40294U 14068A   25337.48478748 -.00000065  00000+0  00000+0 0  9998", "line2": "2 40294  56.8510  38.5042 0060819  69.3788 291.3251  2.00564094 81285"}}, "geometry": {"type": "Point", "coordinates": [-136.48184429336808, -7.6705532668924405]}}]}